{"spkid": "50699974", "covariance": {"labels": ["e", "q", "tp", "node", "peri", "i"], "data": [["6.854407464204341E-13", "-6.535292727678773E-13", "-1.010211320995288E-10", "5.196252506254518E-11", "-6.976943764051547E-11", "-7.840244562792139E-12"], ["-6.535292727678773E-13", "6.232301549213227E-13", "9.569427260134604E-11", "-5.123175411083745E-11", "6.784586497975861E-11", "7.730832628349507E-12"], ["-1.010211320995288E-10", "9.569427260134604E-11", "1.826471480764429E-8", "9.797419592956992E-10", "3.64359492907511E-9", "-1.399527598226248E-10"], ["5.196252506254518E-11", "-5.123175411083745E-11", "9.797419592956992E-10", "3.718845660810757E-8", "-3.326330073533564E-8", "-5.650761904994439E-9"], ["-6.976943764051547E-11", "6.784586497975861E-11", "3.64359492907511E-9", "-3.326330073533564E-8", "3.101019441375692E-8", "5.057928679227985E-9"], ["-7.840244562792139E-12", "7.730832628349507E-12", "-1.399527598226248E-10", "-5.650761904994439E-9", "5.057928679227985E-9", "9.461278238189021E-10"]], "elements": [{"units": null, "value": ".3677741809733358", "title": "eccentricity", "sigma": 8.27913489695895e-07, "name": "e", "label": "e"}, {"sigma": 7.89449273178032e-07, "name": "q", "units": "au", "title": "perihelion distance", "value": ".6575953122349455", "label": "q"}, {"value": "2457095.228143188386", "title": "time of perihelion passage", "units": "TDB", "name": "tp", "sigma": 0.000135147011833944, "label": "tp"}, {"title": "longitude of the ascending node", "value": "271.0322128308537", "units": "deg", "name": "om", "sigma": 0.000192843088048568, "label": "node"}, {"sigma": 0.000176097116426581, "name": "w", "title": "argument of perihelion", "value": "284.7877573706006", "units": "deg", "label": "peri"}, {"label": "i", "title": "inclination", "value": "6.03092377115344", "units": "deg", "name": "i", "sigma": 3.07591908836839e-05}], "epoch": "2457047.5"}, "elements": [{"name": "e", "sigma": "8.2029E-7", "units": null, "title": "eccentricity", "value": ".3677167916659942", "label": "e"}, {"sigma": "9.994E-8", "name": "a", "title": "semi-major axis", "value": "1.040076111477521", "units": "au", "label": "a"}, {"label": "q", "sigma": "7.9074E-7", "name": "q", "value": ".6576226606765637", "title": "perihelion distance", "units": "au"}, {"label": "i", "name": "i", "sigma": "3.0851E-5", "title": "inclination; angle with respect to x-y ecliptic plane", "value": "6.022290283423206", "units": "deg"}, {"label": "node", "sigma": ".00019154", "name": "om", "units": "deg", "value": "270.8254681935877", "title": "longitude of the ascending node"}, {"sigma": ".00017465", "name": "w", "title": "argument of perihelion", "value": "284.9752173534314", "units": "deg", "label": "peri"}, {"units": "deg", "value": "213.7857901648631", "title": "mean anomaly", "sigma": ".00048599", "name": "ma", "label": "M"}, {"label": "tp", "sigma": ".00054564", "name": "tp", "units": "TDB", "title": "time of perihelion passage", "value": "2461357.855957549406"}, {"label": "period", "title": "sidereal orbital period", "value": "387.4325537966491", "units": "d", "name": "per", "sigma": "5.5842E-5"}, {"label": "n", "name": "n", "sigma": "1.3393E-7", "units": "deg/d", "value": ".9291939886624818", "title": "mean motion"}, {"label": "Q", "value": "1.422529562278477", "title": "aphelion distance", "units": "au", "sigma": "1.3669E-7", "name": "ad"}], "epoch": "2461200.5"}